IRIDIUM 63              
1 25286U 98021B   25176.18989378  .00000265  00000+0  83563-4 0  9998
2 25286  86.3972  78.7756 0002023  85.7682 274.3746 14.36551182424990
IRIDIUM 69              
1 25319U 98026A   25176.52519756  .00000310  00000+0  90317-4 0  9993
2 25319  86.3969  91.9006 0003314  39.0272 321.1166 14.40974890424266
IRIDIUM 71              
1 25320U 98026B   25176.46150425  .00000290  00000+0  83821-4 0  9991
2 25320  86.3966  86.6163 0004237  72.1757 287.9904 14.41163832424784
IRIDIUM 73              
1 25344U 98032C   25176.33324360  .00000357  00000+0  83716-4 0  9998
2 25344  86.4406  43.3568 0001977  69.7712 290.3706 14.51722465431746
IRIDIUM 82              
1 25467U 98051A   25176.51612865  .00011733  00000+0  33418-3 0  9998
2 25467  86.3674 105.6424 0081047 264.6654  94.5345 15.32630853425237
